{"type": "FeatureCollection", "features": [ {"type": "Feature", "properties": {"norad_id": 67000, "name": "2025-292H", "group": "last-30-days", "lat": 23.746320879641566, "lon": -108.5151705271531, "alt_km": 551.1890547243274, "timestamp": "2025-12-21T14:40:46.636615+00:00", "meta": {"OBJECT_NAME": "2025-292H", "OBJECT_ID": "2025-292H", "EPOCH": "2025-12-21T06:00:33.050592", "MEAN_MOTION": 15.04988431, "ECCENTRICITY": 0.00143203, "INCLINATION": 97.6573, "RA_OF_ASC_NODE": 67.7334, "ARG_OF_PERICENTER": 247.9336, "MEAN_ANOMALY": 112.037, "EPHEMERIS_TYPE": 0, "CLASSIFICATION_TYPE": "U", "NORAD_CAT_ID": 67000, "ELEMENT_SET_NO": 999, "REV_AT_EPOCH": 154, "BSTAR": 0.00033199067, "MEAN_MOTION_DOT": 4.657e-05, "MEAN_MOTION_DDOT": 0}, "tle": {"line1": "1 67000U 25292H   25355.25038253  .00004657  00000+0  33199-3 0  9990", "line2": "2 67000  97.6573  67.7334 0014320 247.9336 112.0370 15.04988431  1543"}}, "geometry": {"type": "Point", "coordinates": [-108.5151705271531, 23.746320879641566]}}, {"type": "Feature", "properties": {"norad_id": 67001, "name": "2025-292J", "group": "last-30-days", "lat": 47.77716558705035, "lon": -103.3978695356096, "alt_km": 551.6167261304026, "timestamp": "2025-12-21T14:40:46.636626+00:00", "meta": {"OBJECT_NAME": "2025-292J", "OBJECT_ID": "2025-292J", "EPOCH": "2025-12-21T06:06:49.402080", "MEAN_MOTION": 15.04386266, "ECCENTRICITY": 0.00145169, "INCLINATION": 97.6553, "RA_OF_ASC_NODE": 67.725, "ARG_OF_PERICENTER": 236.9715, "MEAN_ANOMALY": 123.0117, "EPHEMERIS_TYPE": 0, "CLASSIFICATION_TYPE": "U", "NORAD_CAT_ID": 67001, "ELEMENT_SET_NO": 999, "REV_AT_EPOCH": 167, "BSTAR": 0.00028715657, "MEAN_MOTION_DOT": 3.955e-05, "MEAN_MOTION_DDOT": 0}, "tle": {"line1": "1 67001U 25292J   25355.25473845  .00003955  00000+0  28716-3 0  9990", "line2": "2 67001  97.6553  67.7250 0014516 236.9715 123.0117 15.04386266  1678"}}, "geometry": {"type": "Point", "coordinates": [-103.3978695356096, 47.77716558705035]}}, {"type": "Feature", "properties": {"norad_id": 67002, "name": "ZK-1A R/B", "group": "last-30-days", "lat": 75.45804810477863, "lon": 37.57884317449915, "alt_km": 420.75927456248974, "timestamp": "2025-12-21T14:40:46.636636+00:00", "meta": {"OBJECT_NAME": "ZK-1A R/B", "OBJECT_ID": "2025-292K", "EPOCH": "2025-12-21T05:06:00.468288", "MEAN_MOTION": 15.57216347, "ECCENTRICITY": 0.02104649, "INCLINATION": 97.7213, "RA_OF_ASC_NODE": 68.6842, "ARG_OF_PERICENTER": 334.7569, "MEAN_ANOMALY": 24.3512, "EPHEMERIS_TYPE": 0, "CLASSIFICATION_TYPE": "U", "NORAD_CAT_ID": 67002, "ELEMENT_SET_NO": 999, "REV_AT_EPOCH": 171, "BSTAR": 0.0006841887, "MEAN_MOTION_DOT": 0.00143963, "MEAN_MOTION_DDOT": 7.692112e-06}, "tle": {"line1": "1 67002U 25292K   25355.21250542  .00143963  76921-5  68419-3 0  9993", "line2": "2 67002  97.7213  68.6842 0210464 334.7569  24.3512 15.57216347  1711"}}, "geometry": {"type": "Point", "coordinates": [37.57884317449915, 75.45804810477863]}}, {"type": "Feature", "properties": {"norad_id": 67003, "name": "STARLINK-35660", "group": "last-30-days", "lat": 67.02185636830694, "lon": -2.717556363247189, "alt_km": 299.5588234546485, "timestamp": "2025-12-21T14:40:46.636646+00:00", "meta": {"OBJECT_NAME": "STARLINK-35660", "OBJECT_ID": "2025-293A", "EPOCH": "2025-12-21T06:00:00.999648", "MEAN_MOTION": 15.89428859, "ECCENTRICITY": 0.00040442, "INCLINATION": 69.9937, "RA_OF_ASC_NODE": 299.0905, "ARG_OF_PERICENTER": 280.7658, "MEAN_ANOMALY": 249.1528, "EPHEMERIS_TYPE": 0, "CLASSIFICATION_TYPE": "U", "NORAD_CAT_ID": 67003, "ELEMENT_SET_NO": 999, "REV_AT_EPOCH": 154, "BSTAR": -0.00054476519, "MEAN_MOTION_DOT": -0.00160275, "MEAN_MOTION_DDOT": 1.2271343e-05}, "tle": {"line1": "1 67003U 25293A   25355.25001157 -.00160275  12271-4 -54477-3 0  9998", "line2": "2 67003  69.9937 299.0905 0004044 280.7658 249.1528 15.89428859  1543"}}, "geometry": {"type": "Point", "coordinates": [-2.717556363247189, 67.02185636830694]}}, {"type": "Feature", "properties": {"norad_id": 67004, "name": "STARLINK-35913", "group": "last-30-days", "lat": 68.03265816830059, "lon": 2.638850149686007, "alt_km": 299.5824071702109, "timestamp": "2025-12-21T14:40:46.636658+00:00", "meta": {"OBJECT_NAME": "STARLINK-35913", "OBJECT_ID": "2025-293B", "EPOCH": "2025-12-21T06:00:00.999648", "MEAN_MOTION": 15.89493239, "ECCENTRICITY": 0.00042217, "INCLINATION": 69.9937, "RA_OF_ASC_NODE": 299.0877, "ARG_OF_PERICENTER": 273.094, "MEAN_ANOMALY": 259.0376, "EPHEMERIS_TYPE": 0, "CLASSIFICATION_TYPE": "U", "NORAD_CAT_ID": 67004, "ELEMENT_SET_NO": 999, "REV_AT_EPOCH": 154, "BSTAR": -0.00061846243, "MEAN_MOTION_DOT": -0.00182381, "MEAN_MOTION_DDOT": 1.47256e-05}, "tle": {"line1": "1 67004U 25293B   25355.25001157 -.00182381  14726-4 -61846-3 0  9996", "line2": "2 67004  69.9937 299.0877 0004221 273.0940 259.0376 15.89493239  1543"}}, "geometry": {"type": "Point", "coordinates": [2.638850149686007, 68.03265816830059]}}, {"type": "Feature", "properties": {"norad_id": 67005, "name": "STARLINK-36148", "group": "last-30-days", "lat": 68.8903535098391, "lon": 8.736184287914615, "alt_km": 299.4610344957837, "timestamp": "2025-12-21T14:40:46.636669+00:00", "meta": {"OBJECT_NAME": "STARLINK-36148", "OBJECT_ID": "2025-293C", "EPOCH": "2025-12-21T06:00:00.999648", "MEAN_MOTION": 15.89523747, "ECCENTRICITY": 0.00042534, "INCLINATION": 69.994, "RA_OF_ASC_NODE": 299.0854, "ARG_OF_PERICENTER": 274.1799, "MEAN_ANOMALY": 260.3066, "EPHEMERIS_TYPE": 0, "CLASSIFICATION_TYPE": "U", "NORAD_CAT_ID": 67005, "ELEMENT_SET_NO": 999, "REV_AT_EPOCH": 154, "BSTAR": -0.00062708107, "MEAN_MOTION_DOT": -0.00185188, "MEAN_MOTION_DDOT": 1.5062036e-05}, "tle": {"line1": "1 67005U 25293C   25355.25001157 -.00185188  15062-4 -62708-3 0  9997", "line2": "2 67005  69.9940 299.0854 0004253 274.1799 260.3066 15.89523747  1541"}}, "geometry": {"type": "Point", "coordinates": [8.736184287914615, 68.8903535098391]}}, {"type": "Feature", "properties": {"norad_id": 67006, "name": "STARLINK-36156", "group": "last-30-days", "lat": 69.94539432989333, "lon": 24.50959477157131, "alt_km": 299.24547121644537, "timestamp": "2025-12-21T14:40:46.636679+00:00", "meta": {"OBJECT_NAME": "STARLINK-36156", "OBJECT_ID": "2025-293D", "EPOCH": "2025-12-21T06:00:00.999648", "MEAN_MOTION": 15.89578983, "ECCENTRICITY": 0.00042304, "INCLINATION": 69.9939, "RA_OF_ASC_NODE": 299.0781, "ARG_OF_PERICENTER": 273.4482, "MEAN_ANOMALY": 266.5924, "EPHEMERIS_TYPE": 0, "CLASSIFICATION_TYPE": "U", "NORAD_CAT_ID": 67006, "ELEMENT_SET_NO": 999, "REV_AT_EPOCH": 154, "BSTAR": -0.00063148128, "MEAN_MOTION_DOT": -0.00186992, "MEAN_MOTION_DDOT": 1.5285767e-05}, "tle": {"line1": "1 67006U 25293D   25355.25001157 -.00186992  15286-4 -63148-3 0  9999", "line2": "2 67006  69.9939 299.0781 0004230 273.4482 266.5924 15.89578983  1548"}}, "geometry": {"type": "Point", "coordinates": [24.50959477157131, 69.94539432989333]}}, {"type": "Feature", "properties": {"norad_id": 67007, "name": "STARLINK-36123", "group": "last-30-days", "lat": 69.6441108100505, "lon": 17.165341521104978, "alt_km": 299.3738344416315, "timestamp": "2025-12-21T14:40:46.636691+00:00", "meta": {"OBJECT_NAME": "STARLINK-36123", "OBJECT_ID": "2025-293E", "EPOCH": "2025-12-21T06:00:00.999648", "MEAN_MOTION": 15.89561571, "ECCENTRICITY": 0.0004282, "INCLINATION": 69.9937, "RA_OF_ASC_NODE": 299.081, "ARG_OF_PERICENTER": 275.6732, "MEAN_ANOMALY": 261.8478, "EPHEMERIS_TYPE": 0, "CLASSIFICATION_TYPE": "U", "NORAD_CAT_ID": 67007, "ELEMENT_SET_NO": 999, "REV_AT_EPOCH": 154, "BSTAR": -0.00071121186, "MEAN_MOTION_DOT": -0.00210258, "MEAN_MOTION_DDOT": 1.825465e-05}, "tle": {"line1": "1 67007U 25293E   25355.25001157 -.00210258  18255-4 -71121-3 0  9992", "line2": "2 67007  69.9937 299.0810 0004282 275.6732 261.8478 15.89561571  1546"}}, "geometry": {"type": "Point", "coordinates": [17.165341521104978, 69.6441108100505]}}, {"type": "Feature", "properties": {"norad_id": 67008, "name": "STARLINK-36163", "group": "last-30-days", "lat": 69.87189839056381, "lon": 34.22550650682352, "alt_km": 299.18030030888167, "timestamp": "2025-12-21T14:40:46.636701+00:00", "meta": {"OBJECT_NAME": "STARLINK-36163", "OBJECT_ID": "2025-293F", "EPOCH": "2025-12-21T06:00:00.999648", "MEAN_MOTION": 15.89607729, "ECCENTRICITY": 0.00042192, "INCLINATION": 69.9938, "RA_OF_ASC_NODE": 299.0744, "ARG_OF_PERICENTER": 273.0528, "MEAN_ANOMALY": 270.2857, "EPHEMERIS_TYPE": 0, "CLASSIFICATION_TYPE": "U", "NORAD_CAT_ID": 67008, "ELEMENT_SET_NO": 999, "REV_AT_EPOCH": 154, "BSTAR": -0.00064727345, "MEAN_MOTION_DOT": -0.00191911, "MEAN_MOTION_DDOT": 1.5890259e-05}, "tle": {"line1": "1 67008U 25293F   25355.25001157 -.00191911  15890-4 -64727-3 0  9993", "line2": "2 67008  69.9938 299.0744 0004219 273.0528 270.2857 15.89607729  1540"}}, "geometry": {"type": "Point", "coordinates": [34.22550650682352, 69.87189839056381]}}, {"type": "Feature", "properties": {"norad_id": 67009, "name": "STARLINK-36118", "group": "last-30-days", "lat": 69.4166472267027, "lon": 42.04001864711961, "alt_km": 299.17614830061575, "timestamp": "2025-12-21T14:40:46.636711+00:00", "meta": {"OBJECT_NAME": "STARLINK-36118", "OBJECT_ID": "2025-293G", "EPOCH": "2025-12-21T06:00:00.999648", "MEAN_MOTION": 15.89644708, "ECCENTRICITY": 0.00042643, "INCLINATION": 69.9937, "RA_OF_ASC_NODE": 299.0712, "ARG_OF_PERICENTER": 275.8053, "MEAN_ANOMALY": 270.2425, "EPHEMERIS_TYPE": 0, "CLASSIFICATION_TYPE": "U", "NORAD_CAT_ID": 67009, "ELEMENT_SET_NO": 999, "REV_AT_EPOCH": 148, "BSTAR": -0.00069950568, "MEAN_MOTION_DOT": -0.00207679, "MEAN_MOTION_DDOT": 1.7922284e-05}, "tle": {"line1": "1 67009U 25293G   25355.25001157 -.00207679  17922-4 -69951-3 0  9995", "line2": "2 67009  69.9937 299.0712 0004264 275.8053 270.2425 15.89644708  1480"}}, "geometry": {"type": "Point", "coordinates": [42.04001864711961, 69.4166472267027]}}]}